start=new Date('2021-10-03T00:00:00.000Z').valueOf();
sats=[{"MEAN_ELEMENT_THEORY":"SGP4","MEAN_MOTION":"15.06405726","PERIOD":"95.592","REV_AT_EPOCH":"3279","ECCENTRICITY":"0.00003170","TIME_SYSTEM":"UTC","EPHEMERIS_TYPE":"0","MEAN_ANOMALY":"285.5700","OBJECT_TYPE":"PAYLOAD","INCLINATION":"53.0560","NORAD_CAT_ID":"47801","GP_ID":"186051824","FILE":"3141323","OBJECT_ID":"2021-018Q","SEMIMAJOR_AXIS":"6925.331","COUNTRY_CODE":"US","LAUNCH_DATE":"2021-03-11","REF_FRAME":"TEME","PERIAPSIS":"546.976","BSTAR":"0.00003289000000","TLE_LINE1":"1 47801U 21018Q   21275.71321313  .00000209  00000-0  32890-4 0  9997","TLE_LINE2":"2 47801  53.0560 304.4757 0000317  74.5324 285.5700 15.06405726 32791","DECAY_DATE":null,"CENTER_NAME":"EARTH","CLASSIFICATION_TYPE":"U","RA_OF_ASC_NODE":"304.4757","OBJECT_NAME":"STARLINK-2382","ELEMENT_SET_NO":"999","ARG_OF_PERICENTER":"74.5324","MEAN_MOTION_DOT":"0.00000209","RCS_SIZE":"LARGE","MEAN_MOTION_DDOT":"0.0000000000000","SITE":"AFETR","APOAPSIS":"547.416","EPOCH":"2021-10-02T17:07:01.614432"},{"SEMIMAJOR_AXIS":"6925.349","GP_ID":"186053076","FILE":"3141323","OBJECT_ID":"2021-018R","NORAD_CAT_ID":"47802","OBJECT_TYPE":"PAYLOAD","INCLINATION":"53.0567","EPHEMERIS_TYPE":"0","MEAN_ANOMALY":"357.9620","REF_FRAME":"TEME","LAUNCH_DATE":"2021-03-11","COUNTRY_CODE":"US","MEAN_MOTION":"15.06399945","MEAN_ELEMENT_THEORY":"SGP4","TIME_SYSTEM":"UTC","REV_AT_EPOCH":"3248","ECCENTRICITY":"0.00045500","PERIOD":"95.592","MEAN_MOTION_DOT":"0.00000672","ARG_OF_PERICENTER":"2.1388","APOAPSIS":"550.365","EPOCH":"2021-10-02T12:08:30.124608","MEAN_MOTION_DDOT":"0.0000000000000","SITE":"AFETR","RCS_SIZE":"LARGE","BSTAR":"0.00006409400000","PERIAPSIS":"544.063","ELEMENT_SET_NO":"999","OBJECT_NAME":"STARLINK-2383","RA_OF_ASC_NODE":"325.4786","CLASSIFICATION_TYPE":"U","CENTER_NAME":"EARTH","TLE_LINE1":"1 47802U 21018R   21275.50590422  .00000672  00000-0  64094-4 0  9999","TLE_LINE2":"2 47802  53.0567 325.4786 0004550   2.1388 357.9620 15.06399945 32480","DECAY_DATE":null},{"MEAN_MOTION_DOT":"0.00000349","ARG_OF_PERICENTER":"100.7272","EPOCH":"2021-10-02T18:26:00.754656","APOAPSIS":"547.690","SITE":"AFETR","MEAN_MOTION_DDOT":"0.0000000000000","RCS_SIZE":"LARGE","BSTAR":"0.00004233000000","PERIAPSIS":"546.745","ELEMENT_SET_NO":"999","RA_OF_ASC_NODE":"299.2355","OBJECT_NAME":"STARLINK-2384","CENTER_NAME":"EARTH","CLASSIFICATION_TYPE":"U","TLE_LINE2":"2 47803  53.0567 299.2355 0000682 100.7272 259.3794 15.06398694 32869","TLE_LINE1":"1 47803U 21018S   21275.76806429  .00000349  00000-0  42330-4 0  9995","DECAY_DATE":null,"SEMIMAJOR_AXIS":"6925.353","GP_ID":"186052826","OBJECT_ID":"2021-018S","FILE":"3141323","OBJECT_TYPE":"PAYLOAD","INCLINATION":"53.0567","NORAD_CAT_ID":"47803","EPHEMERIS_TYPE":"0","MEAN_ANOMALY":"259.3794","REF_FRAME":"TEME","LAUNCH_DATE":"2021-03-11","COUNTRY_CODE":"US","MEAN_MOTION":"15.06398694","MEAN_ELEMENT_THEORY":"SGP4","REV_AT_EPOCH":"3286","ECCENTRICITY":"0.00006820","TIME_SYSTEM":"UTC","PERIOD":"95.592"},{"ARG_OF_PERICENTER":"81.6240","MEAN_MOTION_DOT":"0.00001460","RCS_SIZE":"MEDIUM","MEAN_MOTION_DDOT":"0.0000000000000","SITE":"AFETR","EPOCH":"2021-10-02T12:25:05.641824","APOAPSIS":"547.702","PERIAPSIS":"546.750","BSTAR":"0.00011687000000","DECAY_DATE":null,"TLE_LINE2":"2 47804  53.0555 300.3532 0000687  81.6240 278.4827 15.06395991 32827","TLE_LINE1":"1 47804U 21018T   21275.51742641  .00001460  00000-0  11687-3 0  9999","CENTER_NAME":"EARTH","CLASSIFICATION_TYPE":"U","RA_OF_ASC_NODE":"300.3532","OBJECT_NAME":"STARLINK-2385","ELEMENT_SET_NO":"999","MEAN_ANOMALY":"278.4827","EPHEMERIS_TYPE":"0","INCLINATION":"53.0555","OBJECT_TYPE":"PAYLOAD","NORAD_CAT_ID":"47804","OBJECT_ID":"2021-018T","GP_ID":"186051574","FILE":"3141323","SEMIMAJOR_AXIS":"6925.361","COUNTRY_CODE":"US","LAUNCH_DATE":"2021-03-11","REF_FRAME":"TEME","MEAN_ELEMENT_THEORY":"SGP4","MEAN_MOTION":"15.06395991","PERIOD":"95.592","REV_AT_EPOCH":"3282","ECCENTRICITY":"0.00006870","TIME_SYSTEM":"UTC"},{"PERIAPSIS":"546.753","BSTAR":"0.00004492800000","TLE_LINE2":"2 47805  53.0551 299.4123 0000690 104.8253 255.2813 15.06394365 32860","DECAY_DATE":null,"TLE_LINE1":"1 47805U 21018U   21275.72657963  .00000388  00000-0  44928-4 0  9998","CENTER_NAME":"EARTH","CLASSIFICATION_TYPE":"U","RA_OF_ASC_NODE":"299.4123","OBJECT_NAME":"STARLINK-2386","ELEMENT_SET_NO":"999","ARG_OF_PERICENTER":"104.8253","MEAN_MOTION_DOT":"0.00000388","RCS_SIZE":"MEDIUM","SITE":"AFETR","MEAN_MOTION_DDOT":"0.0000000000000","EPOCH":"2021-10-02T17:26:16.480032","APOAPSIS":"547.709","MEAN_ELEMENT_THEORY":"SGP4","MEAN_MOTION":"15.06394365","PERIOD":"95.592","REV_AT_EPOCH":"3286","ECCENTRICITY":"0.00006900","TIME_SYSTEM":"UTC","EPHEMERIS_TYPE":"0","MEAN_ANOMALY":"255.2813","OBJECT_TYPE":"PAYLOAD","INCLINATION":"53.0551","NORAD_CAT_ID":"47805","GP_ID":"186052325","FILE":"3141323","OBJECT_ID":"2021-018U","SEMIMAJOR_AXIS":"6925.366","COUNTRY_CODE":"US","LAUNCH_DATE":"2021-03-11","REF_FRAME":"TEME"},{"MEAN_MOTION_DOT":"0.00000092","ARG_OF_PERICENTER":"83.4046","APOAPSIS":"548.068","EPOCH":"2021-10-02T11:41:55.942656","RCS_SIZE":"LARGE","MEAN_MOTION_DDOT":"0.0000000000000","SITE":"AFETR","BSTAR":"0.00002508100000","PERIAPSIS":"546.351","RA_OF_ASC_NODE":"315.5009","OBJECT_NAME":"STARLINK-2387","ELEMENT_SET_NO":"999","DECAY_DATE":null,"TLE_LINE2":"2 47806  53.0565 315.5009 0001240  83.4046 276.7084 15.06401274 32678","TLE_LINE1":"1 47806U 21018V   21275.48745304  .00000092  00000-0  25081-4 0  9990","CENTER_NAME":"EARTH","CLASSIFICATION_TYPE":"U","OBJECT_ID":"2021-018V","GP_ID":"186052576","FILE":"3141323","SEMIMAJOR_AXIS":"6925.345","EPHEMERIS_TYPE":"0","MEAN_ANOMALY":"276.7084","INCLINATION":"53.0565","OBJECT_TYPE":"PAYLOAD","NORAD_CAT_ID":"47806","REF_FRAME":"TEME","COUNTRY_CODE":"US","LAUNCH_DATE":"2021-03-11","MEAN_ELEMENT_THEORY":"SGP4","MEAN_MOTION":"15.06401274","ECCENTRICITY":"0.00012400","REV_AT_EPOCH":"3267","TIME_SYSTEM":"UTC","PERIOD":"95.592"},{"LAUNCH_DATE":"2021-03-11","COUNTRY_CODE":"US","REF_FRAME":"TEME","OBJECT_TYPE":"PAYLOAD","INCLINATION":"53.0438","NORAD_CAT_ID":"47807","EPHEMERIS_TYPE":"0","MEAN_ANOMALY":"292.7970","SEMIMAJOR_AXIS":"6925.351","GP_ID":"186053327","FILE":"3141323","OBJECT_ID":"2021-018W","PERIOD":"95.592","REV_AT_EPOCH":"3299","ECCENTRICITY":"0.00004510","TIME_SYSTEM":"UTC","MEAN_MOTION":"15.06399212","MEAN_ELEMENT_THEORY":"SGP4","MEAN_MOTION_DDOT":"0.0000000000000","SITE":"AFETR","RCS_SIZE":"LARGE","APOAPSIS":"547.528","EPOCH":"2021-10-02T17:50:12.174144","ARG_OF_PERICENTER":"67.3067","MEAN_MOTION_DOT":"0.00001611","CENTER_NAME":"EARTH","CLASSIFICATION_TYPE":"U","TLE_LINE2":"2 47807  53.0438 289.3955 0000451  67.3067 292.7970 15.06399212 32998","DECAY_DATE":null,"TLE_LINE1":"1 47807U 21018W   21275.74319646  .00001611  00000-0  12697-3 0  9992","ELEMENT_SET_NO":"999","RA_OF_ASC_NODE":"289.3955","OBJECT_NAME":"STARLINK-2388","PERIAPSIS":"546.904","BSTAR":"0.00012697000000"},{"LAUNCH_DATE":"2021-03-11","COUNTRY_CODE":"US","REF_FRAME":"TEME","NORAD_CAT_ID":"47808","OBJECT_TYPE":"PAYLOAD","INCLINATION":"53.0559","EPHEMERIS_TYPE":"0","MEAN_ANOMALY":"261.8090","SEMIMAJOR_AXIS":"6925.334","FILE":"3141323","GP_ID":"186052075","OBJECT_ID":"2021-018X","PERIOD":"95.592","TIME_SYSTEM":"UTC","REV_AT_EPOCH":"3266","ECCENTRICITY":"0.00009720","MEAN_MOTION":"15.06404718","MEAN_ELEMENT_THEORY":"SGP4","MEAN_MOTION_DDOT":"0.0000000000000","SITE":"AFETR","RCS_SIZE":"LARGE","EPOCH":"2021-10-02T10:32:55.295232","APOAPSIS":"547.872","ARG_OF_PERICENTER":"98.3009","MEAN_MOTION_DOT":"0.00001258","CLASSIFICATION_TYPE":"U","CENTER_NAME":"EARTH","TLE_LINE1":"1 47808U 21018X   21275.43952888  .00001258  00000-0  10328-3 0  9996","TLE_LINE2":"2 47808  53.0559 315.7103 0000972  98.3009 261.8090 15.06404718 32662","DECAY_DATE":null,"ELEMENT_SET_NO":"999","OBJECT_NAME":"STARLINK-2389","RA_OF_ASC_NODE":"315.7103","PERIAPSIS":"546.526","BSTAR":"0.00010328000000"},{"TIME_SYSTEM":"UTC","ECCENTRICITY":"0.00010530","REV_AT_EPOCH":"3260","PERIOD":"95.592","MEAN_MOTION":"15.06407256","MEAN_ELEMENT_THEORY":"SGP4","REF_FRAME":"TEME","LAUNCH_DATE":"2021-03-11","COUNTRY_CODE":"US","SEMIMAJOR_AXIS":"6925.326","GP_ID":"186051825","FILE":"3141323","OBJECT_ID":"2021-018Y","NORAD_CAT_ID":"47809","INCLINATION":"53.0554","OBJECT_TYPE":"PAYLOAD","EPHEMERIS_TYPE":"0","MEAN_ANOMALY":"272.9737","ELEMENT_SET_NO":"999","OBJECT_NAME":"STARLINK-2390","RA_OF_ASC_NODE":"320.3790","CLASSIFICATION_TYPE":"U","CENTER_NAME":"EARTH","TLE_LINE2":"2 47809  53.0554 320.3790 0001053  87.1373 272.9737 15.06407256 32608","DECAY_DATE":null,"TLE_LINE1":"1 47809U 21018Y   21275.51188958  .00002817  00000-0  20790-3 0  9991","BSTAR":"0.00020790000000","PERIAPSIS":"546.462","EPOCH":"2021-10-02T12:17:07.259712","APOAPSIS":"547.921","MEAN_MOTION_DDOT":"0.0000000000000","SITE":"AFETR","RCS_SIZE":"LARGE","MEAN_MOTION_DOT":"0.00002817","ARG_OF_PERICENTER":"87.1373"},{"ARG_OF_PERICENTER":"80.4459","MEAN_MOTION_DOT":"0.00000408","RCS_SIZE":"LARGE","SITE":"AFETR","MEAN_MOTION_DDOT":"0.0000000000000","APOAPSIS":"548.122","EPOCH":"2021-10-02T11:17:25.001664","PERIAPSIS":"546.332","BSTAR":"0.00004629700000","TLE_LINE1":"1 47810U 21018Z   21275.47042826  .00000408  00000-0  46297-4 0  9996","TLE_LINE2":"2 47810  53.0560 330.5854 0001292  80.4459 279.6676 15.06395554 32453","DECAY_DATE":null,"CLASSIFICATION_TYPE":"U","CENTER_NAME":"EARTH","OBJECT_NAME":"STARLINK-2391","RA_OF_ASC_NODE":"330.5854","ELEMENT_SET_NO":"999","EPHEMERIS_TYPE":"0","MEAN_ANOMALY":"279.6676","NORAD_CAT_ID":"47810","INCLINATION":"53.0560","OBJECT_TYPE":"PAYLOAD","FILE":"3141323","GP_ID":"186053077","OBJECT_ID":"2021-018Z","SEMIMAJOR_AXIS":"6925.362","COUNTRY_CODE":"US","LAUNCH_DATE":"2021-03-11","REF_FRAME":"TEME","MEAN_ELEMENT_THEORY":"SGP4","MEAN_MOTION":"15.06395554","PERIOD":"95.592","TIME_SYSTEM":"UTC","ECCENTRICITY":"0.00012920","REV_AT_EPOCH":"3245"}];
